OBJECT_NAME,OBJECT_ID,EPOCH,MEAN_MOTION,ECCENTRICITY,INCLINATION,RA_OF_ASC_NODE,ARG_OF_PERICENTER,MEAN_ANOMALY,EPHEMERIS_TYPE,CLASSIFICATION_TYPE,NORAD_CAT_ID,ELEMENT_SET_NO,REV_AT_EPOCH,BSTAR,MEAN_MOTION_DOT,MEAN_MOTION_DDOT
STARLINK-34217,2025-133S,2026-07-14T14:00:01.999872,15.33529601,.00013119,53.1574,247.4868,85.2681,325.4217,0,U,64488,999,587,.15821785E-2,.51991E-3,0
STARLINK-34307,2025-133T,2026-07-14T10:40:28.734528,15.30195430,.0001099,53.1575,248.1406,76.0899,284.0224,0,U,64489,999,6057,.73807351E-4,.1827E-4,0
STARLINK-34505,2025-133U,2026-07-14T12:09:58.574880,15.30194738,.00011138,53.1573,247.8158,74.6960,285.4164,0,U,64490,999,6058,.16760753E-3,.4607E-4,0
STARLINK-34530,2025-133V,2026-07-14T12:53:39.873120,15.34387357,.00006642,53.1565,243.7498,87.9578,272.1501,0,U,64491,999,6063,.38752609E-3,.12734E-3,0
STARLINK-34522,2025-133W,2026-07-14T12:47:36.501504,15.34392243,.00010008,53.1577,243.7227,90.3541,269.7576,0,U,64492,999,6066,.44893146E-3,.14818E-3,0
STARLINK-34462,2025-133X,2026-07-14T11:10:45.607296,15.34401094,.00006052,53.1589,244.0132,27.1104,332.9930,0,U,64493,999,6065,-.32773958E-4,-.1483E-4,0
STARLINK-34226,2025-133Y,2026-07-14T10:45:14.663232,15.31707004,.00012634,53.1577,247.4496,105.8959,254.2182,0,U,64494,999,6043,.1931085E-3,.5633E-4,0
STARLINK-34364,2025-133Z,2026-07-14T11:31:52.925952,15.34377117,.00011348,53.1569,243.3747,80.6425,279.4705,0,U,64495,999,6066,.1710629E-3,.5404E-4,0
STARLINK-34363,2025-133AB,2026-07-14T12:35:29.242464,15.34392954,.00012454,53.1582,243.6709,75.0054,285.1087,0,U,64497,999,6066,.16691658E-3,.5266E-4,0
STARLINK-34427,2025-133AC,2026-07-14T12:39:12.525984,15.34389071,.00009942,53.1586,247.2315,85.8123,274.2993,0,U,64498,999,6061,.14252375E-3,.4441E-4,0
KUIPER-00039,2025-134A,2026-07-13T23:29:13.667424,14.79933754,.00006599,51.9033,34.6593,103.1403,256.9633,0,U,64500,999,5877,.12885077E-3,.761E-5,0
KUIPER-00040,2025-134B,2026-07-14T13:00:16.366176,14.79933370,.00007278,51.8999,42.2493,125.0814,235.0217,0,U,64501,999,5871,.1918219E-3,.1241E-4,0
KUIPER-00041,2025-134C,2026-07-13T23:09:47.838528,14.79932852,.00007214,51.9017,47.1825,111.0815,249.0224,0,U,64502,999,5859,.28732547E-3,.197E-4,0
KUIPER-00042,2025-134D,2026-07-14T13:04:07.801536,14.79928276,.00008259,51.8999,39.6006,105.5477,254.5577,0,U,64503,999,5875,.24592011E-3,.1654E-4,0
KUIPER-00043,2025-134E,2026-07-13T19:26:06.171360,14.79932350,.00008045,51.9028,35.3474,120.5159,239.5883,0,U,64504,999,5875,.24856065E-3,.1674E-4,0
KUIPER-00044,2025-134F,2026-07-12T23:39:46.549152,14.79931468,.00008091,51.9008,51.4934,117.4524,242.6521,0,U,64505,999,5845,-.37550243E-4,-.507E-5,0
KUIPER-00046,2025-134G,2026-07-14T07:19:53.448672,14.79938989,.00008224,51.8986,43.1341,118.3609,241.7436,0,U,64506,999,5868,.14457752E-3,.881E-5,0
KUIPER-00047,2025-134H,2026-07-13T18:16:02.597088,14.79931598,.00008797,51.9009,18.0671,125.2750,234.8295,0,U,64507,999,5898,.57945053E-4,.221E-5,0
KUIPER-00048,2025-134J,2026-07-14T12:54:21.009024,14.79937907,.00006014,51.9001,14.6472,120.8674,239.2348,0,U,64508,999,5910,.24590675E-3,.1654E-4,0
KUIPER-00049,2025-134K,2026-07-14T11:46:17.656896,14.79932263,.00006705,51.9018,27.3206,113.8237,246.2796,0,U,64509,999,5892,.20138641E-3,.1314E-4,0
KUIPER-00050,2025-134L,2026-07-14T12:13:29.042688,14.79931666,.00006441,51.9015,9.7593,123.0051,237.0974,0,U,64510,999,5917,.24253881E-3,.1628E-4,0
KUIPER-00051,2025-134M,2026-07-14T14:26:14.436672,14.79942663,.00007807,51.9022,25.5241,118.2782,241.8259,0,U,64511,999,5895,.23569044E-3,.1576E-4,0
KUIPER-00053,2025-134P,2026-07-14T11:42:33.175008,14.81686578,.00007761,51.9017,21.2777,342.0489,18.0447,0,U,64513,999,5900,.19733486E-3,.1344E-4,0
KUIPER-00054,2025-134Q,2026-07-14T12:50:30.490368,14.79931419,.00008075,51.8991,17.1365,124.5244,235.5795,0,U,64514,999,5906,.24982821E-3,.1684E-4,0
KUIPER-00055,2025-134R,2026-07-14T14:52:52.589568,14.79928884,.00005224,51.9035,329.3937,115.9788,244.1229,0,U,64515,999,5974,.24738741E-3,.1665E-4,0
KUIPER-00056,2025-134S,2026-07-14T11:54:05.325408,14.79928575,.00006741,51.9034,22.4046,109.3788,250.7248,0,U,64516,999,5899,.23531306E-3,.1573E-4,0
KUIPER-00057,2025-134T,2026-07-14T13:19:39.724032,14.79931244,.00007365,51.9000,29.5730,113.1581,246.9460,0,U,64517,999,5889,.26858029E-3,.1827E-4,0
KUIPER-00058,2025-134U,2026-07-13T22:03:36.731232,14.79942353,.00006963,51.9025,27.3569,124.8814,235.2214,0,U,64518,999,5887,.26489612E-3,.1799E-4,0
KUIPER-00059,2025-134V,2026-07-14T12:46:34.627008,14.79930128,.00007192,51.9013,19.6854,129.9481,230.1544,0,U,64519,999,5903,.22961246E-3,.153E-4,0
KUIPER-00060,2025-134W,2026-07-13T19:45:32.383008,14.79932828,.00007246,51.9032,22.8848,117.1761,242.9275,0,U,64520,999,5891,.74829446E-4,.349E-5,0
