STARLINK-34217          
1 64488U 25133S   26195.58335648  .00051991  00000+0  15822-2 0  9993
2 64488  53.1574 247.4868 0001311  85.2681 325.4217 15.33529601  5871
STARLINK-34307          
1 64489U 25133T   26195.44477702  .00001827  00000+0  73807-4 0  9999
2 64489  53.1575 248.1406 0001099  76.0899 284.0224 15.30195430 60573
STARLINK-34505          
1 64490U 25133U   26195.50692795  .00004607  00000+0  16761-3 0  9993
2 64490  53.1573 247.8158 0001113  74.6960 285.4164 15.30194738 60582
STARLINK-34530          
1 64491U 25133V   26195.53726705  .00012734  00000+0  38753-3 0  9991
2 64491  53.1565 243.7498 0000664  87.9578 272.1501 15.34387357 60637
STARLINK-34522          
1 64492U 25133W   26195.53306136  .00014818  00000+0  44893-3 0  9991
2 64492  53.1577 243.7227 0001000  90.3541 269.7576 15.34392243 60661
STARLINK-34462          
1 64493U 25133X   26195.46580564 -.00001483  00000+0 -32774-4 0  9995
2 64493  53.1589 244.0132 0000605  27.1104 332.9930 15.34401094 60658
STARLINK-34226          
1 64494U 25133Y   26195.44808638  .00005633  00000+0  19311-3 0  9999
2 64494  53.1577 247.4496 0001263 105.8959 254.2182 15.31707004 60437
STARLINK-34364          
1 64495U 25133Z   26195.48047368  .00005404  00000+0  17106-3 0  9995
2 64495  53.1569 243.3747 0001134  80.6425 279.4705 15.34377117 60664
STARLINK-34363          
1 64497U 25133AB  26195.52464401  .00005266  00000+0  16692-3 0  9998
2 64497  53.1582 243.6709 0001245  75.0054 285.1087 15.34392954 60664
STARLINK-34427          
1 64498U 25133AC  26195.52722831  .00004441  00000+0  14252-3 0  9997
2 64498  53.1586 247.2315 0000994  85.8123 274.2993 15.34389071 60614
KUIPER-00039            
1 64500U 25134A   26194.97863041  .00000761  00000+0  12885-3 0  9990
2 64500  51.9033  34.6593 0000659 103.1403 256.9633 14.79933754 58773
KUIPER-00040            
1 64501U 25134B   26195.54185609  .00001241  00000+0  19182-3 0  9993
2 64501  51.8999  42.2493 0000727 125.0814 235.0217 14.79933370 58717
KUIPER-00041            
1 64502U 25134C   26194.96513702  .00001970  00000+0  28733-3 0  9999
2 64502  51.9017  47.1825 0000721 111.0815 249.0224 14.79932852 58596
KUIPER-00042            
1 64503U 25134D   26195.54453474  .00001654  00000+0  24592-3 0  9992
2 64503  51.8999  39.6006 0000825 105.5477 254.5577 14.79928276 58754
KUIPER-00043            
1 64504U 25134E   26194.80979365  .00001674  00000+0  24856-3 0  9998
2 64504  51.9028  35.3474 0000804 120.5159 239.5883 14.79932350 58753
KUIPER-00044            
1 64505U 25134F   26193.98595543 -.00000507  00000+0 -37550-4 0  9991
2 64505  51.9008  51.4934 0000809 117.4524 242.6521 14.79931468 58458
KUIPER-00046            
1 64506U 25134G   26195.30547973  .00000881  00000+0  14458-3 0  9998
2 64506  51.8986  43.1341 0000822 118.3609 241.7436 14.79938989 58687
KUIPER-00047            
1 64507U 25134H   26194.76114117  .00000221  00000+0  57945-4 0  9995
2 64507  51.9009  18.0671 0000879 125.2750 234.8295 14.79931598 58986
KUIPER-00048            
1 64508U 25134J   26195.53774316  .00001654  00000+0  24591-3 0  9996
2 64508  51.9001  14.6472 0000601 120.8674 239.2348 14.79937907 59102
KUIPER-00049            
1 64509U 25134K   26195.49048214  .00001314  00000+0  20139-3 0  9990
2 64509  51.9018  27.3206 0000670 113.8237 246.2796 14.79932263 58924
KUIPER-00050            
1 64510U 25134L   26195.50936392  .00001628  00000+0  24254-3 0  9997
2 64510  51.9015   9.7593 0000644 123.0051 237.0974 14.79931666 59174
KUIPER-00051            
1 64511U 25134M   26195.60155598  .00001576  00000+0  23569-3 0  9990
2 64511  51.9022  25.5241 0000780 118.2782 241.8259 14.79942663 58950
KUIPER-00053            
1 64513U 25134P   26195.48788397  .00001344  00000+0  19733-3 0  9998
2 64513  51.9017  21.2777 0000776 342.0489  18.0447 14.81686578 59002
KUIPER-00054            
1 64514U 25134Q   26195.53507512  .00001684  00000+0  24983-3 0  9993
2 64514  51.8991  17.1365 0000807 124.5244 235.5795 14.79931419 59069
KUIPER-00055            
1 64515U 25134R   26195.62005312  .00001665  00000+0  24739-3 0  9993
2 64515  51.9035 329.3937 0000522 115.9788 244.1229 14.79928884 59749
KUIPER-00056            
1 64516U 25134S   26195.49589497  .00001573  00000+0  23531-3 0  9997
2 64516  51.9034  22.4046 0000674 109.3788 250.7248 14.79928575 58993
KUIPER-00057            
1 64517U 25134T   26195.55532088  .00001827  00000+0  26858-3 0  9996
2 64517  51.9000  29.5730 0000736 113.1581 246.9460 14.79931244 58897
KUIPER-00058            
1 64518U 25134U   26194.91917513  .00001799  00000+0  26490-3 0  9996
2 64518  51.9025  27.3569 0000696 124.8814 235.2214 14.79942353 58873
KUIPER-00059            
1 64519U 25134V   26195.53234522  .00001530  00000+0  22961-3 0  9990
2 64519  51.9013  19.6854 0000719 129.9481 230.1544 14.79930128 59030
KUIPER-00060            
1 64520U 25134W   26194.82329147  .00000349  00000+0  74829-4 0  9999
2 64520  51.9032  22.8848 0000724 117.1761 242.9275 14.79932828 58915
